[
  {
    "name": "ONEWEB-0672",
    "noradId": "55831",
    "line1": "1 55831U 23029AM  26195.74451941 -.00000030  00000+0 -10586-3 0  9993",
    "line2": "2 55831  87.9188 268.9435 0002090  93.2078 266.9294 13.20769832164787"
  },
  {
    "name": "ONEWEB-0673",
    "noradId": "55832",
    "line1": "1 55832U 23029AN  26195.78954429 -.00000006  00000+0 -47576-4 0  9990",
    "line2": "2 55832  87.9193 299.4726 0001927 104.3927 255.7419 13.19724922162547"
  },
  {
    "name": "ONEWEB-0674",
    "noradId": "55833",
    "line1": "1 55833U 23029AP  26195.73520794 -.00000177  00000+0 -51208-3 0  9995",
    "line2": "2 55833  87.8963 284.2265 0001612 104.4451 255.6858 13.14501242163030"
  },
  {
    "name": "ONEWEB-0675",
    "noradId": "55834",
    "line1": "1 55834U 23029AQ  26195.80455615  .00000005  00000+0 -18788-4 0  9999",
    "line2": "2 55834  87.9187 299.4777 0002250  97.2513 262.8876 13.19724162162563"
  },
  {
    "name": "ONEWEB-0720",
    "noradId": "55835",
    "line1": "1 55835U 23029AR  26195.79665660  .00000010  00000+0 -85164-5 0  9990",
    "line2": "2 55835  87.9183 299.4789 0002144 108.3883 251.7483 13.19726046162484"
  },
  {
    "name": "ONEWEB-0537",
    "noradId": "56046",
    "line1": "1 56046U 23043A   26195.62950618 -.00000084  00000+0 -25392-3 0  9990",
    "line2": "2 56046  87.9080 223.3202 0002171  89.1200 271.0179 13.16593796162578"
  },
  {
    "name": "ONEWEB-0538",
    "noradId": "56047",
    "line1": "1 56047U 23043B   26195.62317008  .00000020  00000+0  18286-4 0  9994",
    "line2": "2 56047  87.9084 223.3239 0002339  93.7687 266.3711 13.16594164162589"
  },
  {
    "name": "ONEWEB-0546",
    "noradId": "56048",
    "line1": "1 56048U 23043C   26195.61050348  .00000152  00000+0  36525-3 0  9996",
    "line2": "2 56048  87.9083 223.3266 0002274  78.9272 281.2114 13.16594343162573"
  },
  {
    "name": "ONEWEB-0547",
    "noradId": "56049",
    "line1": "1 56049U 23043D   26195.65021602  .00000037  00000+0  58503-4 0  9995",
    "line2": "2 56049  87.9241 238.5091 0002220 101.9706 258.1677 13.21827047161857"
  },
  {
    "name": "ONEWEB-0548",
    "noradId": "56050",
    "line1": "1 56050U 23043E   26195.63503481 -.00000009  00000+0 -57770-4 0  9991",
    "line2": "2 56050  87.9078 223.3177 0001614  91.5212 268.6104 13.16594923162575"
  },
  {
    "name": "ONEWEB-0549",
    "noradId": "56051",
    "line1": "1 56051U 23043F   26195.64433356 -.00000005  00000+0 -42641-4 0  9993",
    "line2": "2 56051  87.9233 238.5158 0002465  98.4364 261.7049 13.21826989161853"
  },
  {
    "name": "ONEWEB-0550",
    "noradId": "56052",
    "line1": "1 56052U 23043G   26195.63088713  .00000019  00000+0  14023-4 0  9992",
    "line2": "2 56052  87.9236 238.5165 0001884  99.9366 260.1980 13.21826804161850"
  },
  {
    "name": "ONEWEB-0551",
    "noradId": "56053",
    "line1": "1 56053U 23043H   26195.61193529  .00000158  00000+0  38514-3 0  9997",
    "line2": "2 56053  87.8983 253.7621 0002370 102.4739 257.6657 13.15547557160006"
  },
  {
    "name": "ONEWEB-0552",
    "noradId": "56054",
    "line1": "1 56054U 23043J   26195.62582708  .00000076  00000+0  15296-3 0  9991",
    "line2": "2 56054  87.9231 238.5222 0002093 101.9744 258.1624 13.21826124161855"
  },
  {
    "name": "ONEWEB-0553",
    "noradId": "56055",
    "line1": "1 56055U 23043K   26195.61683610  .00000126  00000+0  29668-3 0  9999",
    "line2": "2 56055  87.9081 223.3255 0002051  82.5872 277.5492 13.16594317162586"
  },
  {
    "name": "ONEWEB-0554",
    "noradId": "56056",
    "line1": "1 56056U 23043L   26195.60417289  .00000114  00000+0  26492-3 0  9995",
    "line2": "2 56056  87.9077 223.3370 0001521  93.1556 266.9749 13.16594232162569"
  },
  {
    "name": "ONEWEB-0555",
    "noradId": "56057",
    "line1": "1 56057U 23043M   26195.64216521 -.00000103  00000+0 -30321-3 0  9992",
    "line2": "2 56057  87.9080 223.3188 0002264  78.8642 281.2743 13.16592880162574"
  },
  {
    "name": "ONEWEB-0557",
    "noradId": "56058",
    "line1": "1 56058U 23043N   26195.58041716  .00000004  00000+0 -23700-4 0  9991",
    "line2": "2 56058  87.9080 223.3401 0001340  56.4491 303.6768 13.16593719162568"
  },
  {
    "name": "ONEWEB-0558",
    "noradId": "56059",
    "line1": "1 56059U 23043P   26195.61910581  .00000033  00000+0  49567-4 0  9991",
    "line2": "2 56059  87.9236 238.5192 0002437  95.8226 264.3186 13.21825627161869"
  },
  {
    "name": "ONEWEB-0559",
    "noradId": "56060",
    "line1": "1 56060U 23043Q   26195.60732938  .00000093  00000+0  19402-3 0  9990",
    "line2": "2 56060  87.9237 238.5171 0002221 100.8733 259.2651 13.21824041161870"
  },
  {
    "name": "ONEWEB-0566",
    "noradId": "56061",
    "line1": "1 56061U 23043R   26195.60060191  .00000078  00000+0  15838-3 0  9998",
    "line2": "2 56061  87.9238 238.5160 0002324 103.2377 256.9016 13.21824140161852"
  },
  {
    "name": "ONEWEB-0568",
    "noradId": "56062",
    "line1": "1 56062U 23043S   26195.59783505  .00000061  00000+0  12540-3 0  9997",
    "line2": "2 56062  87.9078 223.3263 0002134  86.1387 273.9988 13.16595339162587"
  },
  {
    "name": "ONEWEB-0574",
    "noradId": "56063",
    "line1": "1 56063U 23043T   26195.66958368  .00000064  00000+0  12283-3 0  9994",
    "line2": "2 56063  87.9241 238.5073 0001887  94.4407 265.6942 13.21825906161901"
  },
  {
    "name": "ONEWEB-0575",
    "noradId": "56064",
    "line1": "1 56064U 23043U   26195.59149682  .00000012  00000+0 -34487-5 0  9994",
    "line2": "2 56064  87.9076 223.3241 0001781  84.7435 275.3899 13.16594907162574"
  },
  {
    "name": "ONEWEB-0576",
    "noradId": "56065",
    "line1": "1 56065U 23043V   26195.57249065 -.00000013  00000+0 -68451-4 0  9998",
    "line2": "2 56065  87.9083 223.3360 0001883  88.5581 271.5766 13.16595389162567"
  },
  {
    "name": "ONEWEB-0577",
    "noradId": "56066",
    "line1": "1 56066U 23043W   26195.57883212  .00000019  00000+0  15688-4 0  9995",
    "line2": "2 56066  87.9080 223.3326 0001329  81.8539 278.2743 13.16595933162598"
  },
  {
    "name": "ONEWEB-0578",
    "noradId": "56067",
    "line1": "1 56067U 23043X   26195.65612475  .00000043  00000+0  73658-4 0  9994",
    "line2": "2 56067  87.9240 238.5062 0002102  88.9102 271.2273 13.21826567161862"
  },
  {
    "name": "ONEWEB-0579",
    "noradId": "56068",
    "line1": "1 56068U 23043Y   26195.57199214 -.00000023  00000+0 -87555-4 0  9998",
    "line2": "2 56068  87.9242 238.5216 0002103 103.6983 256.4385 13.21827672161866"
  },
  {
    "name": "ONEWEB-0581",
    "noradId": "56069",
    "line1": "1 56069U 23043Z   26195.58516405  .00000013  00000+0 -50828-6 0  9998",
    "line2": "2 56069  87.9073 223.3419 0001516  89.0952 271.0353 13.16595100162564"
  },
  {
    "name": "ONEWEB-0609",
    "noradId": "56070",
    "line1": "1 56070U 23043AA  26195.63807742 -.00000127  00000+0 -37186-3 0  9999",
    "line2": "2 56070  87.8985 253.7414 0002175  97.9393 262.1984 13.15547062160043"
  },
  {
    "name": "ONEWEB-0613",
    "noradId": "56071",
    "line1": "1 56071U 23043AB  26195.71175994 -.00000002  00000+0 -38785-4 0  9995",
    "line2": "2 56071  87.8985 253.7392 0002219 105.1552 254.9824 13.15548417160055"
  }
]