OBJECT_NAME,OBJECT_ID,EPOCH,MEAN_MOTION,ECCENTRICITY,INCLINATION,RA_OF_ASC_NODE,ARG_OF_PERICENTER,MEAN_ANOMALY,EPHEMERIS_TYPE,CLASSIFICATION_TYPE,NORAD_CAT_ID,ELEMENT_SET_NO,REV_AT_EPOCH,BSTAR,MEAN_MOTION_DOT,MEAN_MOTION_DDOT
ONEWEB-0672,2023-029AM,2026-07-14T17:52:06.477024,13.20769832,.000209,87.9188,268.9435,93.2078,266.9294,0,U,55831,999,16478,-.10586E-3,-.3E-6,0
ONEWEB-0673,2023-029AN,2026-07-14T18:56:56.626656,13.19724922,.0001927,87.9193,299.4726,104.3927,255.7419,0,U,55832,999,16254,-.47576E-4,-.6E-7,0
ONEWEB-0674,2023-029AP,2026-07-14T17:38:41.966016,13.14501242,.0001612,87.8963,284.2265,104.4451,255.6858,0,U,55833,999,16303,-.51208E-3,-.177E-5,0
ONEWEB-0675,2023-029AQ,2026-07-14T19:18:33.651360,13.19724162,.000225,87.9187,299.4777,97.2513,262.8876,0,U,55834,999,16256,-.18788E-4,.5E-7,0
ONEWEB-0720,2023-029AR,2026-07-14T19:07:11.130240,13.19726046,.0002144,87.9183,299.4789,108.3883,251.7483,0,U,55835,999,16248,-.85164E-5,.1E-6,0
ONEWEB-0537,2023-043A,2026-07-14T15:06:29.333952,13.16593796,.0002171,87.9080,223.3202,89.1200,271.0179,0,U,56046,999,16257,-.25392E-3,-.84E-6,0
ONEWEB-0538,2023-043B,2026-07-14T14:57:21.894912,13.16594164,.0002339,87.9084,223.3239,93.7687,266.3711,0,U,56047,999,16258,.18286E-4,.2E-6,0
ONEWEB-0546,2023-043C,2026-07-14T14:39:07.500672,13.16594343,.0002274,87.9083,223.3266,78.9272,281.2114,0,U,56048,999,16257,.36525E-3,.152E-5,0
ONEWEB-0547,2023-043D,2026-07-14T15:36:18.664128,13.21827047,.000222,87.9241,238.5091,101.9706,258.1677,0,U,56049,999,16185,.58503E-4,.37E-6,0
ONEWEB-0548,2023-043E,2026-07-14T15:14:27.007584,13.16594923,.0001614,87.9078,223.3177,91.5212,268.6104,0,U,56050,999,16257,-.5777E-4,-.9E-7,0
ONEWEB-0549,2023-043F,2026-07-14T15:27:50.419584,13.21826989,.0002465,87.9233,238.5158,98.4364,261.7049,0,U,56051,999,16185,-.42641E-4,-.5E-7,0
ONEWEB-0550,2023-043G,2026-07-14T15:08:28.648032,13.21826804,.0001884,87.9236,238.5165,99.9366,260.1980,0,U,56052,999,16185,.14023E-4,.19E-6,0
ONEWEB-0551,2023-043H,2026-07-14T14:41:11.209056,13.15547557,.000237,87.8983,253.7621,102.4739,257.6657,0,U,56053,999,16000,.38514E-3,.158E-5,0
ONEWEB-0552,2023-043J,2026-07-14T15:01:11.459712,13.21826124,.0002093,87.9231,238.5222,101.9744,258.1624,0,U,56054,999,16185,.15296E-3,.76E-6,0
ONEWEB-0553,2023-043K,2026-07-14T14:48:14.639040,13.16594317,.0002051,87.9081,223.3255,82.5872,277.5492,0,U,56055,999,16258,.29668E-3,.126E-5,0
ONEWEB-0554,2023-043L,2026-07-14T14:30:00.537696,13.16594232,.0001521,87.9077,223.3370,93.1556,266.9749,0,U,56056,999,16256,.26492E-3,.114E-5,0
ONEWEB-0555,2023-043M,2026-07-14T15:24:43.074144,13.16592880,.0002264,87.9080,223.3188,78.8642,281.2743,0,U,56057,999,16257,-.30321E-3,-.103E-5,0
ONEWEB-0557,2023-043N,2026-07-14T13:55:48.042624,13.16593719,.000134,87.9080,223.3401,56.4491,303.6768,0,U,56058,999,16256,-.237E-4,.4E-7,0
ONEWEB-0558,2023-043P,2026-07-14T14:51:30.741984,13.21825627,.0002437,87.9236,238.5192,95.8226,264.3186,0,U,56059,999,16186,.49567E-4,.33E-6,0
ONEWEB-0559,2023-043Q,2026-07-14T14:34:33.258432,13.21824041,.0002221,87.9237,238.5171,100.8733,259.2651,0,U,56060,999,16187,.19402E-3,.93E-6,0
ONEWEB-0566,2023-043R,2026-07-14T14:24:52.005024,13.21824140,.0002324,87.9238,238.5160,103.2377,256.9016,0,U,56061,999,16185,.15838E-3,.78E-6,0
ONEWEB-0568,2023-043S,2026-07-14T14:20:52.948320,13.16595339,.0002134,87.9078,223.3263,86.1387,273.9988,0,U,56062,999,16258,.1254E-3,.61E-6,0
ONEWEB-0574,2023-043T,2026-07-14T16:04:12.029952,13.21825906,.0001887,87.9241,238.5073,94.4407,265.6942,0,U,56063,999,16190,.12283E-3,.64E-6,0
ONEWEB-0575,2023-043U,2026-07-14T14:11:45.325248,13.16594907,.0001781,87.9076,223.3241,84.7435,275.3899,0,U,56064,999,16257,-.34487E-5,.12E-6,0
ONEWEB-0576,2023-043V,2026-07-14T13:44:23.192160,13.16595389,.0001883,87.9083,223.3360,88.5581,271.5766,0,U,56065,999,16256,-.68451E-4,-.13E-6,0
ONEWEB-0577,2023-043W,2026-07-14T13:53:31.095168,13.16595933,.0001329,87.9080,223.3326,81.8539,278.2743,0,U,56066,999,16259,.15688E-4,.19E-6,0
ONEWEB-0578,2023-043X,2026-07-14T15:44:49.178400,13.21826567,.0002102,87.9240,238.5062,88.9102,271.2273,0,U,56067,999,16186,.73658E-4,.43E-6,0
ONEWEB-0579,2023-043Y,2026-07-14T13:43:40.120896,13.21827672,.0002103,87.9242,238.5216,103.6983,256.4385,0,U,56068,999,16186,-.87555E-4,-.23E-6,0
ONEWEB-0581,2023-043Z,2026-07-14T14:02:38.173920,13.16595100,.0001516,87.9073,223.3419,89.0952,271.0353,0,U,56069,999,16256,-.50828E-6,.13E-6,0
ONEWEB-0609,2023-043AA,2026-07-14T15:18:49.889088,13.15547062,.0002175,87.8985,253.7414,97.9393,262.1984,0,U,56070,999,16004,-.37186E-3,-.127E-5,0
ONEWEB-0613,2023-043AB,2026-07-14T17:04:56.058816,13.15548417,.0002219,87.8985,253.7392,105.1552,254.9824,0,U,56071,999,16005,-.38785E-4,-.2E-7,0
